{
  "type": "FeatureCollection",
  "features": [
    {
      "type": "Feature",
      "properties": {
        "norad_id": 66605,
        "name": "STARLINK-36052",
        "group": "last-30-days",
        "lat": 8.149193207596813,
        "lon": -156.57080660466175,
        "alt_km": 413.85353330831276,
        "timestamp": "2025-12-12T09:49:07.481789+00:00",
        "meta_object_name": "STARLINK-36052",
        "meta_object_id": "2025-270T",
        "meta_epoch": "2025-12-12T04:00:01.998720",
        "meta_mean_motion": 15.50552279,
        "meta_eccentricity": 0.0002,
        "meta_inclination": 42.9996,
        "meta_ra_of_asc_node": 196.0077,
        "meta_arg_of_pericenter": 274.4045,
        "meta_mean_anomaly": 182.8164,
        "meta_ephemeris_type": 0,
        "meta_classification_type": "U",
        "meta_norad_cat_id": 66605,
        "meta_element_set_no": 999,
        "meta_rev_at_epoch": 430,
        "meta_bstar": 0.00057939,
        "meta_mean_motion_dot": 0.00033764,
        "meta_mean_motion_ddot": 0,
        "tle_line1": "1 66605U 25270T   25346.16668980  .00033764  00000+0  57939-3 0  9991",
        "tle_line2": "2 66605  42.9996 196.0077 0002000 274.4045 182.8164 15.50552279  4300"
      },
      "geometry": {
        "type": "Point",
        "coordinates": [
          -156.57080660466175,
          8.149193207596813
        ]
      }
    },
    {
      "type": "Feature",
      "properties": {
        "norad_id": 66606,
        "name": "STARLINK-36063",
        "group": "last-30-days",
        "lat": 10.707518996225986,
        "lon": -153.71265174224573,
        "alt_km": 413.750833292499,
        "timestamp": "2025-12-12T09:49:07.481800+00:00",
        "meta_object_name": "STARLINK-36063",
        "meta_object_id": "2025-270U",
        "meta_epoch": "2025-12-12T04:00:01.998720",
        "meta_mean_motion": 15.50500185,
        "meta_eccentricity": 0.0001709,
        "meta_inclination": 42.9998,
        "meta_ra_of_asc_node": 195.9979,
        "meta_arg_of_pericenter": 265.0733,
        "meta_mean_anomaly": 195.9935,
        "meta_ephemeris_type": 0,
        "meta_classification_type": "U",
        "meta_norad_cat_id": 66606,
        "meta_element_set_no": 999,
        "meta_rev_at_epoch": 430,
        "meta_bstar": 0.0019106,
        "meta_mean_motion_dot": 0.00113058,
        "meta_mean_motion_ddot": 0,
        "tle_line1": "1 66606U 25270U   25346.16668980  .00113058  00000+0  19106-2 0  9990",
        "tle_line2": "2 66606  42.9998 195.9979 0001709 265.0733 195.9935 15.50500185  4307"
      },
      "geometry": {
        "type": "Point",
        "coordinates": [
          -153.71265174224573,
          10.707518996225986
        ]
      }
    },
    {
      "type": "Feature",
      "properties": {
        "norad_id": 66607,
        "name": "STARLINK-35993",
        "group": "last-30-days",
        "lat": 9.442558617322913,
        "lon": -155.1339788085509,
        "alt_km": 413.6987140691399,
        "timestamp": "2025-12-12T09:49:07.481813+00:00",
        "meta_object_name": "STARLINK-35993",
        "meta_object_id": "2025-270V",
        "meta_epoch": "2025-12-12T04:00:01.998720",
        "meta_mean_motion": 15.50557358,
        "meta_eccentricity": 0.0001979,
        "meta_inclination": 42.9996,
        "meta_ra_of_asc_node": 196.0032,
        "meta_arg_of_pericenter": 275.2392,
        "meta_mean_anomaly": 183.9042,
        "meta_ephemeris_type": 0,
        "meta_classification_type": "U",
        "meta_norad_cat_id": 66607,
        "meta_element_set_no": 999,
        "meta_rev_at_epoch": 420,
        "meta_bstar": 0.00029067,
        "meta_mean_motion_dot": 0.00016734,
        "meta_mean_motion_ddot": 0,
        "tle_line1": "1 66607U 25270V   25346.16668980  .00016734  00000+0  29067-3 0  9992",
        "tle_line2": "2 66607  42.9996 196.0032 0001979 275.2392 183.9042 15.50557358  4200"
      },
      "geometry": {
        "type": "Point",
        "coordinates": [
          -155.1339788085509,
          9.442558617322913
        ]
      }
    },
    {
      "type": "Feature",
      "properties": {
        "norad_id": 66608,
        "name": "STARLINK-36036",
        "group": "last-30-days",
        "lat": 11.984469779945341,
        "lon": -152.25741068359756,
        "alt_km": 413.60255131548456,
        "timestamp": "2025-12-12T09:49:07.481823+00:00",
        "meta_object_name": "STARLINK-36036",
        "meta_object_id": "2025-270W",
        "meta_epoch": "2025-12-12T04:00:01.998720",
        "meta_mean_motion": 15.50498177,
        "meta_eccentricity": 0.0001714,
        "meta_inclination": 42.9997,
        "meta_ra_of_asc_node": 195.9932,
        "meta_arg_of_pericenter": 265.0988,
        "meta_mean_anomaly": 197.8871,
        "meta_ephemeris_type": 0,
        "meta_classification_type": "U",
        "meta_norad_cat_id": 66608,
        "meta_element_set_no": 999,
        "meta_rev_at_epoch": 414,
        "meta_bstar": 0.0019099,
        "meta_mean_motion_dot": 0.00113009,
        "meta_mean_motion_ddot": 0,
        "tle_line1": "1 66608U 25270W   25346.16668980  .00113009  00000+0  19099-2 0  9999",
        "tle_line2": "2 66608  42.9997 195.9932 0001714 265.0988 197.8871 15.50498177  4144"
      },
      "geometry": {
        "type": "Point",
        "coordinates": [
          -152.25741068359756,
          11.984469779945341
        ]
      }
    },
    {
      "type": "Feature",
      "properties": {
        "norad_id": 66609,
        "name": "STARLINK-36034",
        "group": "last-30-days",
        "lat": 13.265572301793645,
        "lon": -150.7741547621205,
        "alt_km": 413.33924481872145,
        "timestamp": "2025-12-12T09:49:07.481834+00:00",
        "meta_object_name": "STARLINK-36034",
        "meta_object_id": "2025-270X",
        "meta_epoch": "2025-12-12T04:00:01.998720",
        "meta_mean_motion": 15.50550062,
        "meta_eccentricity": 0.0002,
        "meta_inclination": 42.9997,
        "meta_ra_of_asc_node": 195.989,
        "meta_arg_of_pericenter": 271.7272,
        "meta_mean_anomaly": 193.161,
        "meta_ephemeris_type": 0,
        "meta_classification_type": "U",
        "meta_norad_cat_id": 66609,
        "meta_element_set_no": 999,
        "meta_rev_at_epoch": 414,
        "meta_bstar": 0.00057178,
        "meta_mean_motion_dot": 0.00033311,
        "meta_mean_motion_ddot": 0,
        "tle_line1": "1 66609U 25270X   25346.16668980  .00033311  00000+0  57178-3 0  9998",
        "tle_line2": "2 66609  42.9997 195.9890 0002000 271.7272 193.1610 15.50550062  4149"
      },
      "geometry": {
        "type": "Point",
        "coordinates": [
          -150.7741547621205,
          13.265572301793645
        ]
      }
    },
    {
      "type": "Feature",
      "properties": {
        "norad_id": 66610,
        "name": "STARLINK-35680",
        "group": "last-30-days",
        "lat": 14.528417022643485,
        "lon": -149.28749118084738,
        "alt_km": 413.1007108310232,
        "timestamp": "2025-12-12T09:49:07.481846+00:00",
        "meta_object_name": "STARLINK-35680",
        "meta_object_id": "2025-270Y",
        "meta_epoch": "2025-12-12T04:00:01.998720",
        "meta_mean_motion": 15.50549353,
        "meta_eccentricity": 0.0002031,
        "meta_inclination": 42.9997,
        "meta_ra_of_asc_node": 195.9838,
        "meta_arg_of_pericenter": 275.9824,
        "meta_mean_anomaly": 190.8262,
        "meta_ephemeris_type": 0,
        "meta_classification_type": "U",
        "meta_norad_cat_id": 66610,
        "meta_element_set_no": 999,
        "meta_rev_at_epoch": 441,
        "meta_bstar": 0.00056317,
        "meta_mean_motion_dot": 0.00032801,
        "meta_mean_motion_ddot": 0,
        "tle_line1": "1 66610U 25270Y   25346.16668980  .00032801  00000+0  56317-3 0  9997",
        "tle_line2": "2 66610  42.9997 195.9838 0002031 275.9824 190.8262 15.50549353  4414"
      },
      "geometry": {
        "type": "Point",
        "coordinates": [
          -149.28749118084738,
          14.528417022643485
        ]
      }
    },
    {
      "type": "Feature",
      "properties": {
        "norad_id": 66611,
        "name": "STARLINK-35583",
        "group": "last-30-days",
        "lat": 15.77996744522367,
        "lon": -147.78594859194547,
        "alt_km": 412.9703497427636,
        "timestamp": "2025-12-12T09:49:07.481856+00:00",
        "meta_object_name": "STARLINK-35583",
        "meta_object_id": "2025-270Z",
        "meta_epoch": "2025-12-12T04:00:01.998720",
        "meta_mean_motion": 15.50536946,
        "meta_eccentricity": 0.0002054,
        "meta_inclination": 42.9998,
        "meta_ra_of_asc_node": 195.9786,
        "meta_arg_of_pericenter": 273.4887,
        "meta_mean_anomaly": 195.2372,
        "meta_ephemeris_type": 0,
        "meta_classification_type": "U",
        "meta_norad_cat_id": 66611,
        "meta_element_set_no": 999,
        "meta_rev_at_epoch": 441,
        "meta_bstar": 0.001477,
        "meta_mean_motion_dot": 0.00087147,
        "meta_mean_motion_ddot": 0,
        "tle_line1": "1 66611U 25270Z   25346.16668980  .00087147  00000+0  14770-2 0  9997",
        "tle_line2": "2 66611  42.9998 195.9786 0002054 273.4887 195.2372 15.50536946  4410"
      },
      "geometry": {
        "type": "Point",
        "coordinates": [
          -147.78594859194547,
          15.77996744522367
        ]
      }
    }
  ]
}